ONEWEB-0012             
1 44057U 19010A   26159.13354333 -.00000003  00000+0 -40798-4 0  9995
2 44057  87.9103 230.5830 0002118  86.4625 273.6748 13.16594281350379
ONEWEB-0010             
1 44058U 19010B   26159.15887220  .00000105  00000+0  24188-3 0  9999
2 44058  87.9101 230.5736 0001783 104.9701 255.1627 13.16594383350421
ONEWEB-0008             
1 44059U 19010C   26159.10821211  .00000128  00000+0  30045-3 0  9997
2 44059  87.9100 230.5793 0002296 101.5778 258.5610 13.16595745350535
ONEWEB-0007             
1 44060U 19010D   26158.98399318  .00000004  00000+0 -24348-4 0  9996
2 44060  87.9003 261.0545 0001695  94.8193 265.3131 13.15548495350162
ONEWEB-0006             
1 44061U 19010E   26158.98794492 -.00000009  00000+0 -57264-4 0  9998
2 44061  87.9014 261.0170 0001812 101.7989 258.3345 13.15547966350218
ONEWEB-0011             
1 44062U 19010F   26158.72808341  .00000152  00000+0  36837-3 0  9999
2 44062  87.9014 261.0786 0001947 106.7089 253.4255 13.15550621350170
ONEWEB-0013             
1 45131U 20008A   26159.15358883  .00000665  00000+0  18929-2 0  9995
2 45131  87.8529  54.6474 0002610  61.5495 298.5895 13.09458787304885
ONEWEB-0017             
1 45132U 20008B   26159.14223736 -.00000366  00000+0 -10852-2 0  9990
2 45132  87.8840  38.0702 0001590  85.2129 274.9180 13.10370052306769
ONEWEB-0020             
1 45133U 20008C   26159.11238333  .00000714  00000+0  20090-2 0  9997
2 45133  87.8846  38.0745 0001801  80.7026 279.4305 13.10372751307155
ONEWEB-0021             
1 45134U 20008D   26159.12731383  .00000327  00000+0  90092-3 0  9992
2 45134  87.8839  38.0875 0001776  78.4464 281.6863 13.10370231307462
ONEWEB-0023             
1 45136U 20008F   26159.13809433 -.00000187  00000+0 -57133-3 0  9992
2 45136  87.8842  38.0669 0001934  80.1799 279.9546 13.10369673306898
ONEWEB-0024             
1 45137U 20008G   26159.11085890  .00000667  00000+0  18732-2 0  9996
2 45137  87.8854  38.0648 0001797  81.5994 278.5337 13.10373095307053
ONEWEB-0025             
1 45138U 20008H   26159.11058291  .00000681  00000+0  19136-2 0  9997
2 45138  87.8856  38.0543 0002125  94.1924 265.9446 13.10373456307387
ONEWEB-0026             
1 45139U 20008J   26159.15554300  .00000485  00000+0  13337-2 0  9993
2 45139  87.8894  22.8661 0001727  88.8209 271.3116 13.11417051309923
ONEWEB-0028             
1 45140U 20008K   26159.13079602  .00019026  00000+0  53853-1 0  9997
2 45140  87.8894  22.8777 0003345  57.9292 302.2160 13.11009230307433
ONEWEB-0032             
1 45141U 20008L   26159.14403545 -.00000487  00000+0 -14308-2 0  9992
2 45141  87.8841  38.0717 0002169  73.5540 286.5826 13.10369976307115
ONEWEB-0033             
1 45142U 20008M   26159.11901841  .00000664  00000+0  18665-2 0  9997
2 45142  87.8839  38.0837 0001427  94.3521 265.7769 13.10371180307027
ONEWEB-0035             
1 45143U 20008N   26159.13907168 -.00000316  00000+0 -94117-3 0  9991
2 45143  87.8836  38.0726 0001721  83.7462 276.3861 13.10370901306755
ONEWEB-0036             
1 45144U 20008P   26159.11145106  .00011001  00000+0  31654-1 0  9992
2 45144  87.8853  38.0872 0001575  92.9413 267.1894 13.09908604307178
ONEWEB-0038             
1 45145U 20008Q   26159.08955653  .00000110  00000+0  27430-3 0  9993
2 45145  87.8909  22.8866 0001130  17.1337 342.9829 13.11414789309133
ONEWEB-0039             
1 45146U 20008R   26159.12233839  .00000214  00000+0  57722-3 0  9996
2 45146  87.8838  38.0733 0002041  68.1993 291.9351 13.10372457306979
ONEWEB-0040             
1 45147U 20008S   26159.11570147  .00000711  00000+0  20016-2 0  9999
2 45147  87.8839  38.0857 0001759  77.8975 282.2349 13.10372100306672
ONEWEB-0043             
1 45149U 20008U   26159.11736412  .00000754  00000+0  21229-2 0  9994
2 45149  87.8843  38.0725 0002190  69.3549 290.7813 13.10371764306996
ONEWEB-0044             
1 45150U 20008V   26159.14555708 -.00000534  00000+0 -15674-2 0  9991
2 45150  87.8850  38.0667 0001866  76.1119 284.0216 13.10370315307297
ONEWEB-0045             
1 45151U 20008W   26159.16063412  .00000328  00000+0  88879-3 0  9997
2 45151  87.8904  22.8556 0001818  79.9050 280.2283 13.11415693309225
ONEWEB-0047             
1 45152U 20008X   26159.13878926 -.00000276  00000+0 -82633-3 0  9995
2 45152  87.8847  38.0678 0001594  81.5110 278.6198 13.10370324307014
ONEWEB-0048             
1 45153U 20008Y   26159.13394791  .00000022  00000+0  27729-4 0  9992
2 45153  87.8836  38.0906 0001745  82.0039 278.1287 13.10369830306621
ONEWEB-0049             
1 45154U 20008Z   26159.13713098 -.00000173  00000+0 -53200-3 0  9999
2 45154  87.8840  38.0793 0002213  85.4202 274.7178 13.10369579306846
ONEWEB-0051             
1 45155U 20008AA  26159.15894770  .00000413  00000+0  11288-2 0  9993
2 45155  87.8896  22.8640 0001831  83.7846 276.3491 13.11415578309908
ONEWEB-0052             
1 45156U 20008AB  26159.15731700 -.00000506  00000+0 -14872-2 0  9994
2 45156  87.8846  38.0615 0002251  84.0669 276.0714 13.10373875306756
ONEWEB-0053             
1 45157U 20008AC  26159.11404419  .00000754  00000+0  21238-2 0  9992
2 45157  87.8840  38.0916 0002252  74.6314 285.5062 13.10372226306725
