OBJECT_NAME,OBJECT_ID,EPOCH,MEAN_MOTION,ECCENTRICITY,INCLINATION,RA_OF_ASC_NODE,ARG_OF_PERICENTER,MEAN_ANOMALY,EPHEMERIS_TYPE,CLASSIFICATION_TYPE,NORAD_CAT_ID,ELEMENT_SET_NO,REV_AT_EPOCH,BSTAR,MEAN_MOTION_DOT,MEAN_MOTION_DDOT
ONEWEB-0012,2019-010A,2026-06-08T03:12:18.143712,13.16594281,.0002118,87.9103,230.5830,86.4625,273.6748,0,U,44057,999,35037,-.40798E-4,-.3E-7,0
ONEWEB-0010,2019-010B,2026-06-08T03:48:46.558080,13.16594383,.0001783,87.9101,230.5736,104.9701,255.1627,0,U,44058,999,35042,.24188E-3,.105E-5,0
ONEWEB-0008,2019-010C,2026-06-08T02:35:49.526304,13.16595745,.0002296,87.9100,230.5793,101.5778,258.5610,0,U,44059,999,35053,.30045E-3,.128E-5,0
ONEWEB-0007,2019-010D,2026-06-07T23:36:57.010752,13.15548495,.0001695,87.9003,261.0545,94.8193,265.3131,0,U,44060,999,35016,-.24348E-4,.4E-7,0
ONEWEB-0006,2019-010E,2026-06-07T23:42:38.441088,13.15547966,.0001812,87.9014,261.0170,101.7989,258.3345,0,U,44061,999,35021,-.57264E-4,-.9E-7,0
ONEWEB-0011,2019-010F,2026-06-07T17:28:26.406624,13.15550621,.0001947,87.9014,261.0786,106.7089,253.4255,0,U,44062,999,35017,.36837E-3,.152E-5,0
ONEWEB-0013,2020-008A,2026-06-08T03:41:10.074912,13.09458787,.000261,87.8529,54.6474,61.5495,298.5895,0,U,45131,999,30488,.18929E-2,.665E-5,0
ONEWEB-0017,2020-008B,2026-06-08T03:24:49.307904,13.10370052,.000159,87.8840,38.0702,85.2129,274.9180,0,U,45132,999,30676,-.10852E-2,-.366E-5,0
ONEWEB-0020,2020-008C,2026-06-08T02:41:49.919712,13.10372751,.0001801,87.8846,38.0745,80.7026,279.4305,0,U,45133,999,30715,.2009E-2,.714E-5,0
ONEWEB-0021,2020-008D,2026-06-08T03:03:19.914912,13.10370231,.0001776,87.8839,38.0875,78.4464,281.6863,0,U,45134,999,30746,.90092E-3,.327E-5,0
ONEWEB-0023,2020-008F,2026-06-08T03:18:51.350112,13.10369673,.0001934,87.8842,38.0669,80.1799,279.9546,0,U,45136,999,30689,-.57133E-3,-.187E-5,0
ONEWEB-0024,2020-008G,2026-06-08T02:39:38.208960,13.10373095,.0001797,87.8854,38.0648,81.5994,278.5337,0,U,45137,999,30705,.18732E-2,.667E-5,0
ONEWEB-0025,2020-008H,2026-06-08T02:39:14.363424,13.10373456,.0002125,87.8856,38.0543,94.1924,265.9446,0,U,45138,999,30738,.19136E-2,.681E-5,0
ONEWEB-0026,2020-008J,2026-06-08T03:43:58.915200,13.11417051,.0001727,87.8894,22.8661,88.8209,271.3116,0,U,45139,999,30992,.13337E-2,.485E-5,0
ONEWEB-0028,2020-008K,2026-06-08T03:08:20.776128,13.11009230,.0003345,87.8894,22.8777,57.9292,302.2160,0,U,45140,999,30743,.53853E-1,.19026E-3,0
ONEWEB-0032,2020-008L,2026-06-08T03:27:24.662880,13.10369976,.0002169,87.8841,38.0717,73.5540,286.5826,0,U,45141,999,30711,-.14308E-2,-.487E-5,0
ONEWEB-0033,2020-008M,2026-06-08T02:51:23.190624,13.10371180,.0001427,87.8839,38.0837,94.3521,265.7769,0,U,45142,999,30702,.18665E-2,.664E-5,0
ONEWEB-0035,2020-008N,2026-06-08T03:20:15.793152,13.10370901,.0001721,87.8836,38.0726,83.7462,276.3861,0,U,45143,999,30675,-.94117E-3,-.316E-5,0
ONEWEB-0036,2020-008P,2026-06-08T02:40:29.371584,13.09908604,.0001575,87.8853,38.0872,92.9413,267.1894,0,U,45144,999,30717,.31654E-1,.11001E-3,0
ONEWEB-0038,2020-008Q,2026-06-08T02:08:57.684192,13.11414789,.000113,87.8909,22.8866,17.1337,342.9829,0,U,45145,999,30913,.2743E-3,.11E-5,0
ONEWEB-0039,2020-008R,2026-06-08T02:56:10.036896,13.10372457,.0002041,87.8838,38.0733,68.1993,291.9351,0,U,45146,999,30697,.57722E-3,.214E-5,0
ONEWEB-0040,2020-008S,2026-06-08T02:46:36.607008,13.10372100,.0001759,87.8839,38.0857,77.8975,282.2349,0,U,45147,999,30667,.20016E-2,.711E-5,0
ONEWEB-0043,2020-008U,2026-06-08T02:49:00.259968,13.10371764,.000219,87.8843,38.0725,69.3549,290.7813,0,U,45149,999,30699,.21229E-2,.754E-5,0
ONEWEB-0044,2020-008V,2026-06-08T03:29:36.131712,13.10370315,.0001866,87.8850,38.0667,76.1119,284.0216,0,U,45150,999,30729,-.15674E-2,-.534E-5,0
ONEWEB-0045,2020-008W,2026-06-08T03:51:18.787968,13.11415693,.0001818,87.8904,22.8556,79.9050,280.2283,0,U,45151,999,30922,.88879E-3,.328E-5,0
ONEWEB-0047,2020-008X,2026-06-08T03:19:51.392064,13.10370324,.0001594,87.8847,38.0678,81.5110,278.6198,0,U,45152,999,30701,-.82633E-3,-.276E-5,0
ONEWEB-0048,2020-008Y,2026-06-08T03:12:53.099424,13.10369830,.0001745,87.8836,38.0906,82.0039,278.1287,0,U,45153,999,30662,.27729E-4,.22E-6,0
ONEWEB-0049,2020-008Z,2026-06-08T03:17:28.116672,13.10369579,.0002213,87.8840,38.0793,85.4202,274.7178,0,U,45154,999,30684,-.532E-3,-.173E-5,0
ONEWEB-0051,2020-008AA,2026-06-08T03:48:53.081280,13.11415578,.0001831,87.8896,22.8640,83.7846,276.3491,0,U,45155,999,30990,.11288E-2,.413E-5,0
ONEWEB-0052,2020-008AB,2026-06-08T03:46:32.188800,13.10373875,.0002251,87.8846,38.0615,84.0669,276.0714,0,U,45156,999,30675,-.14872E-2,-.506E-5,0
ONEWEB-0053,2020-008AC,2026-06-08T02:44:13.418016,13.10372226,.0002252,87.8840,38.0916,74.6314,285.5062,0,U,45157,999,30672,.21238E-2,.754E-5,0
